     2              NAVIGATION DATA                         RINEX VERSION / TYPE
CCRINEXN V1.6.0 UX  CDDIS               02-AUG-24 23:31     PGM / RUN BY / DATE 
IGS BROADCAST EPHEMERIS FILE                                COMMENT             
    0.1956D-07  0.1490D-07 -0.1192D-06 -0.5960D-07          ION ALPHA           
    0.1290D+06  0.1311D+06 -0.1966D+06 -0.6554D+05          ION BETA            
   -0.186264514923D-08-0.444089209850D-14   503808     2325 DELTA-UTC: A0,A1,T,W
    18                                                      LEAP SECONDS        
                                                            END OF HEADER       
 4 24  8  1 22  0  0.0 0.415773130953D-03 0.761701812735D-11 0.000000000000D+00
    0.195000000000D+03-0.830000000000D+02 0.426410618857D-08 0.241099991016D+01
   -0.416673719883D-05 0.291486841161D-02 0.104662030935D-04 0.515372726440D+04
    0.424800000000D+06-0.115483999252D-06 0.302210680503D+01 0.763684511185D-07
    0.965850928345D+00 0.182406250000D+03-0.298276082453D+01-0.766353350264D-08
    0.430017911972D-09 0.100000000000D+01 0.232500000000D+04 0.000000000000D+00
    0.200000000000D+01 0.000000000000D+00-0.465661287308D-08 0.707000000000D+03
    0.417618000000D+06 0.400000000000D+01 0.000000000000D+00 0.000000000000D+00
 5 24  8  1 22  0  0.0-0.181769020855D-03-0.125055521494D-11 0.000000000000D+00
    0.830000000000D+02-0.103187500000D+03 0.434553815196D-08 0.307486764483D+01
   -0.560097396374D-05 0.595842313487D-02 0.284798443317D-05 0.515365588188D+04
    0.424800000000D+06 0.800937414169D-07 0.189193737922D+01-0.111758708954D-06
    0.972125843343D+00 0.331812500000D+03 0.129948523241D+01-0.805140680198D-08
   -0.821462788651D-10 0.100000000000D+01 0.232500000000D+04 0.000000000000D+00
    0.200000000000D+01 0.000000000000D+00-0.107102096081D-07 0.830000000000D+02
    0.417618000000D+06 0.400000000000D+01 0.000000000000D+00 0.000000000000D+00
 6 24  8  1 22  0  0.0 0.125161837786D-03-0.237605490838D-10 0.000000000000D+00
    0.720000000000D+02 0.796875000000D+02 0.388123309751D-08 0.800753663999D+00
    0.427104532719D-05 0.294528948143D-02 0.211782753468D-05 0.515366720009D+04
    0.424800000000D+06 0.931322574616D-08 0.907596984760D+00-0.484287738800D-07
    0.989636880588D+00 0.350625000000D+03-0.726375898163D+00-0.803533470394D-08
    0.320370487574D-09 0.100000000000D+01 0.232500000000D+04 0.000000000000D+00
    0.200000000000D+01 0.000000000000D+00 0.372529029846D-08 0.720000000000D+02
    0.417618000000D+06 0.400000000000D+01 0.000000000000D+00 0.000000000000D+00
 7 24  8  1 22  0  0.0-0.588470138609D-04 0.670752342558D-11 0.000000000000D+00
    0.128000000000D+03 0.130625000000D+02 0.523378943691D-08-0.104192508813D+00
    0.825151801109D-06 0.186909568729D-01 0.647082924843D-05 0.515361269188D+04
    0.424800000000D+06-0.912696123123D-07-0.224901311686D+01 0.191852450371D-06
    0.950206377075D+00 0.249062500000D+03-0.210662154947D+01-0.851285459456D-08
    0.238938524177D-09 0.100000000000D+01 0.232500000000D+04 0.000000000000D+00
    0.280000000000D+01 0.000000000000D+00-0.111758708954D-07 0.128000000000D+03
    0.417618000000D+06 0.400000000000D+01 0.000000000000D+00 0.000000000000D+00
 8 24  8  1 22  0  0.0 0.298933591694D-03 0.152340362547D-10 0.000000000000D+00
    0.540000000000D+02 0.112656250000D+03 0.419124601079D-08 0.274050833320D+01
    0.574998557568D-05 0.952772458550D-02 0.997260212898D-05 0.515367146683D+04
    0.424800000000D+06-0.856816768646D-07-0.189941867498D+00-0.912696123123D-07
    0.952452657065D+00 0.182187500000D+03 0.367475470120D+00-0.771139263903D-08
   -0.197865384745D-09 0.100000000000D+01 0.232500000000D+04 0.000000000000D+00
    0.200000000000D+01 0.000000000000D+00 0.465661287308D-08 0.540000000000D+02
    0.417618000000D+06 0.400000000000D+01 0.000000000000D+00 0.000000000000D+00
 9 24  8  1 22  0  0.0 0.296978279948D-03 0.153477230924D-10 0.000000000000D+00
    0.640000000000D+02-0.896562500000D+02 0.443304179684D-08-0.305069134069D+01
   -0.453367829323D-05 0.293886428699D-02 0.102464109659D-04 0.515362798882D+04
    0.424800000000D+06 0.633299350738D-07 0.296209974284D+01 0.137835741043D-06
    0.959490652077D+00 0.182093750000D+03 0.196669294072D+01-0.775532304033D-08
    0.374658463172D-09 0.100000000000D+01 0.232500000000D+04 0.000000000000D+00
    0.200000000000D+01 0.000000000000D+00 0.931322574616D-09 0.640000000000D+02
    0.417618000000D+06 0.400000000000D+01 0.000000000000D+00 0.000000000000D+00
10 24  8  1 22  0  0.0-0.819955021143D-04-0.104591890704D-10 0.000000000000D+00
    0.280000000000D+02-0.117875000000D+03 0.400266672714D-08-0.157170143860D+01
   -0.608526170254D-05 0.947142404039D-02 0.345148146152D-05 0.515368910980D+04
    0.424800000000D+06 0.135973095894D-06 0.194161014964D+01-0.204890966415D-07
    0.984864637005D+00 0.319593750000D+03-0.237837503614D+01-0.788247119371D-08
   -0.110718897601D-10 0.100000000000D+01 0.232500000000D+04 0.000000000000D+00
    0.200000000000D+01 0.000000000000D+00 0.232830643654D-08 0.280000000000D+02
    0.417618000000D+06 0.400000000000D+01 0.000000000000D+00 0.000000000000D+00
11 24  8  1 22  0  0.0-0.714918132871D-03-0.613908923697D-11 0.000000000000D+00
    0.118000000000D+03 0.775937500000D+02 0.439125434194D-08 0.201261932862D+01
    0.409595668316D-05 0.153141492046D-02 0.131502747536D-05 0.515374967384D+04
    0.424800000000D+06-0.577419996262D-07 0.939188490022D+00 0.279396772385D-07
    0.966190887100D+00 0.350906250000D+03-0.258572476273D+01-0.826927301984D-08
    0.298941023522D-09 0.100000000000D+01 0.232500000000D+04 0.000000000000D+00
    0.200000000000D+01 0.000000000000D+00-0.884756445885D-08 0.118000000000D+03
    0.417618000000D+06 0.400000000000D+01 0.000000000000D+00 0.000000000000D+00
12 24  8  1 22  0  0.0-0.527030788362D-03-0.295585778076D-11 0.000000000000D+00
    0.660000000000D+02 0.687500000000D+00 0.464162191361D-08-0.837092743656D+00
    0.353902578354D-07 0.866474665236D-02 0.778585672379D-05 0.515361227608D+04
    0.424800000000D+06-0.122934579849D-06-0.113279438946D+01 0.121071934700D-06
    0.961627044975D+00 0.230093750000D+03 0.145989511705D+01-0.807462205471D-08
   -0.610025410007D-09 0.100000000000D+01 0.232500000000D+04 0.000000000000D+00
    0.200000000000D+01 0.000000000000D+00-0.125728547573D-07 0.660000000000D+02
    0.420201000000D+06 0.400000000000D+01 0.000000000000D+00 0.000000000000D+00
13 24  8  1 22  0  0.0 0.668267719448D-03 0.227373675443D-11 0.000000000000D+00
    0.200000000000D+02-0.585937500000D+02 0.406016912234D-08 0.245426074135D+01
   -0.311993062496D-05 0.840447132941D-02 0.105090439320D-04 0.515366317177D+04
    0.424800000000D+06-0.558793544769D-08 0.312893026375D+01-0.180676579475D-06
    0.972308670067D+00 0.183281250000D+03 0.941331808374D+00-0.745281043947D-08
    0.397873715894D-09 0.100000000000D+01 0.232500000000D+04 0.000000000000D+00
    0.200000000000D+01 0.000000000000D+00-0.111758708954D-07 0.200000000000D+02
    0.417618000000D+06 0.400000000000D+01 0.000000000000D+00 0.000000000000D+00
14 24  8  1 22  0  0.0 0.462653115392D-03 0.875388650456D-11 0.000000000000D+00
    0.200000000000D+02-0.550000000000D+01 0.495734935064D-08-0.916975146918D+00
   -0.417232513428D-06 0.477275624871D-02 0.743754208088D-05 0.515369026184D+04
    0.424800000000D+06 0.135973095894D-06-0.117828999626D+01-0.104308128357D-06
    0.944933539018D+00 0.231437500000D+03-0.286595425045D+01-0.807569352791D-08
   -0.681814114580D-09 0.100000000000D+01 0.232500000000D+04 0.000000000000D+00
    0.280000000000D+01 0.000000000000D+00-0.791624188423D-08 0.276000000000D+03
    0.417636000000D+06 0.400000000000D+01 0.000000000000D+00 0.000000000000D+00
15 24  8  1 22  0  0.0 0.187795143575D-03 0.432009983342D-11 0.000000000000D+00
    0.260000000000D+02-0.100906250000D+03 0.487270296764D-08 0.176736100730D+01
   -0.544823706150D-05 0.159477848792D-01 0.977516174316D-05 0.515369604874D+04
    0.424800000000D+06-0.447034835815D-07 0.283255075730D+01-0.445172190666D-06
    0.936422501070D+00 0.181312500000D+03 0.133386544135D+01-0.797068915405D-08
    0.266439669710D-09 0.100000000000D+01 0.232500000000D+04 0.000000000000D+00
    0.200000000000D+01 0.000000000000D+00-0.102445483208D-07 0.260000000000D+02
    0.419298000000D+06 0.400000000000D+01 0.000000000000D+00 0.000000000000D+00
16 24  8  1 22  0  0.0-0.220227986574D-03 0.104591890704D-10 0.000000000000D+00
    0.660000000000D+02 0.556250000000D+01 0.446197157331D-08-0.260444287855D+01
    0.266358256340D-06 0.138421397423D-01 0.778399407864D-05 0.515359400558D+04
    0.424800000000D+06 0.154599547386D-06-0.111500203014D+01-0.160187482834D-06
    0.961085324947D+00 0.228718750000D+03 0.840320079916D+00-0.763674667258D-08
   -0.540379651839D-09 0.100000000000D+01 0.232500000000D+04 0.000000000000D+00
    0.200000000000D+01 0.000000000000D+00-0.102445483208D-07 0.660000000000D+02
    0.417618000000D+06 0.400000000000D+01 0.000000000000D+00 0.000000000000D+00
17 24  8  1 22  0  0.0 0.664769671857D-03-0.875388650456D-11 0.000000000000D+00
    0.680000000000D+02 0.115500000000D+03 0.369051086745D-08 0.269102492582D+01
    0.607594847679D-05 0.134343602695D-01 0.101309269667D-04 0.515378120804D+04
    0.424800000000D+06 0.968575477600D-07-0.942409251928D-01 0.428408384323D-07
    0.968274752461D+00 0.183093750000D+03-0.131308537029D+01-0.735673500897D-08
   -0.179293182566D-09 0.100000000000D+01 0.232500000000D+04 0.000000000000D+00
    0.200000000000D+01 0.000000000000D+00-0.111758708954D-07 0.680000000000D+02
    0.417618000000D+06 0.400000000000D+01 0.000000000000D+00 0.000000000000D+00
